start=new Date('2022-07-31T00:00:00.000Z').valueOf();
sats=[{"CENTER_NAME":"EARTH","MEAN_MOTION_DDOT":"0.0000000000000","COUNTRY_CODE":"US","TLE_LINE2":"2 51105  53.2194  84.7716 0001774  68.1522 291.9659 15.08834223 29945","EPHEMERIS_TYPE":"0","OBJECT_NAME":"STARLINK-3350","OBJECT_TYPE":"PAYLOAD","GP_ID":"209229265","REV_AT_EPOCH":"2994","FILE":"3525638","MEAN_MOTION":"15.08834223","MEAN_MOTION_DOT":"0.00000211","PERIOD":"95.438","MEAN_ELEMENT_THEORY":"SGP4","ARG_OF_PERICENTER":"68.1522","PERIAPSIS":"538.536","TIME_SYSTEM":"UTC","CLASSIFICATION_TYPE":"U","LAUNCH_DATE":"2022-01-19","ELEMENT_SET_NO":"999","RA_OF_ASC_NODE":"84.7716","APOAPSIS":"540.990","SITE":"AFETR","RCS_SIZE":"LARGE","MEAN_ANOMALY":"291.9659","INCLINATION":"53.2194","REF_FRAME":"TEME","SEMIMAJOR_AXIS":"6917.898","NORAD_CAT_ID":"51105","EPOCH":"2022-07-30T22:24:38.014848","BSTAR":"0.00003139300000","OBJECT_ID":"2022-005B","TLE_LINE1":"1 51105U 22005B   22211.93377332  .00000211  00000-0  31393-4 0  9993","ECCENTRICITY":"0.00017740","DECAY_DATE":null},{"ELEMENT_SET_NO":"999","CLASSIFICATION_TYPE":"U","LAUNCH_DATE":"2022-01-19","APOAPSIS":"540.879","RA_OF_ASC_NODE":"84.8451","PERIOD":"95.438","MEAN_MOTION_DOT":"0.00000188","MEAN_ELEMENT_THEORY":"SGP4","REV_AT_EPOCH":"2993","GP_ID":"209229516","FILE":"3525638","MEAN_MOTION":"15.08833520","TIME_SYSTEM":"UTC","PERIAPSIS":"538.651","ARG_OF_PERICENTER":"59.5662","TLE_LINE2":"2 51106  53.2168  84.8451 0001610  59.5662 300.5489 15.08833520 29938","OBJECT_TYPE":"PAYLOAD","OBJECT_NAME":"STARLINK-3176","EPHEMERIS_TYPE":"0","CENTER_NAME":"EARTH","COUNTRY_CODE":"US","MEAN_MOTION_DDOT":"0.0000000000000","OBJECT_ID":"2022-005C","BSTAR":"0.00002990100000","EPOCH":"2022-07-30T21:52:50.394432","NORAD_CAT_ID":"51106","SEMIMAJOR_AXIS":"6917.900","DECAY_DATE":null,"ECCENTRICITY":"0.00016100","TLE_LINE1":"1 51106U 22005C   22211.91169438  .00000188  00000-0  29901-4 0  9993","REF_FRAME":"TEME","RCS_SIZE":"LARGE","SITE":"AFETR","INCLINATION":"53.2168","MEAN_ANOMALY":"300.5489"},{"REF_FRAME":"TEME","INCLINATION":"53.2186","MEAN_ANOMALY":"298.6840","SITE":"AFETR","RCS_SIZE":"LARGE","DECAY_DATE":null,"ECCENTRICITY":"0.00017050","TLE_LINE1":"1 51107U 22005D   22211.64677313 -.00000680  00000-0 -24634-4 0  9997","OBJECT_ID":"2022-005D","BSTAR":"-0.00002463400000","EPOCH":"2022-07-30T15:31:21.198432","NORAD_CAT_ID":"51107","SEMIMAJOR_AXIS":"6917.913","OBJECT_TYPE":"PAYLOAD","OBJECT_NAME":"STARLINK-3368","EPHEMERIS_TYPE":"0","TLE_LINE2":"2 51107  53.2186  96.0437 0001705  61.4324 298.6840 15.08829272 29768","MEAN_MOTION_DDOT":"0.0000000000000","COUNTRY_CODE":"US","CENTER_NAME":"EARTH","APOAPSIS":"540.958","RA_OF_ASC_NODE":"96.0437","ELEMENT_SET_NO":"999","CLASSIFICATION_TYPE":"U","LAUNCH_DATE":"2022-01-19","TIME_SYSTEM":"UTC","PERIAPSIS":"538.599","ARG_OF_PERICENTER":"61.4324","MEAN_ELEMENT_THEORY":"SGP4","PERIOD":"95.438","MEAN_MOTION_DOT":"-0.00000680","GP_ID":"209228264","REV_AT_EPOCH":"2976","FILE":"3525638","MEAN_MOTION":"15.08829272"},{"TLE_LINE1":"1 51108U 22005E   22211.93009115  .00000154  00000-0  27802-4 0  9993","ECCENTRICITY":"0.00018380","DECAY_DATE":null,"NORAD_CAT_ID":"51108","SEMIMAJOR_AXIS":"6917.892","OBJECT_ID":"2022-005E","BSTAR":"0.00002780200000","EPOCH":"2022-07-30T22:19:19.875360","REF_FRAME":"TEME","MEAN_ANOMALY":"303.5366","INCLINATION":"53.2189","SITE":"AFETR","RCS_SIZE":"LARGE","APOAPSIS":"541.029","RA_OF_ASC_NODE":"84.7883","LAUNCH_DATE":"2022-01-19","CLASSIFICATION_TYPE":"U","ELEMENT_SET_NO":"999","PERIAPSIS":"538.486","ARG_OF_PERICENTER":"56.5801","TIME_SYSTEM":"UTC","FILE":"3525638","GP_ID":"209228514","MEAN_MOTION":"15.08836097","REV_AT_EPOCH":"2994","PERIOD":"95.438","MEAN_MOTION_DOT":"0.00000154","MEAN_ELEMENT_THEORY":"SGP4","OBJECT_NAME":"STARLINK-3362","EPHEMERIS_TYPE":"0","OBJECT_TYPE":"PAYLOAD","TLE_LINE2":"2 51108  53.2189  84.7883 0001838  56.5801 303.5366 15.08836097 29945","COUNTRY_CODE":"US","MEAN_MOTION_DDOT":"0.0000000000000","CENTER_NAME":"EARTH"},{"COUNTRY_CODE":"US","MEAN_MOTION_DDOT":"0.0000000000000","CENTER_NAME":"EARTH","OBJECT_NAME":"STARLINK-3358","EPHEMERIS_TYPE":"0","OBJECT_TYPE":"PAYLOAD","TLE_LINE2":"2 51109  53.2165  85.5536 0001781  61.7700 298.3472 15.08844864 29688","PERIAPSIS":"538.498","ARG_OF_PERICENTER":"61.7700","TIME_SYSTEM":"UTC","GP_ID":"209228765","REV_AT_EPOCH":"2968","FILE":"3525638","MEAN_MOTION":"15.08844864","MEAN_ELEMENT_THEORY":"SGP4","PERIOD":"95.437","MEAN_MOTION_DOT":"-0.00000164","APOAPSIS":"540.963","RA_OF_ASC_NODE":"85.5536","CLASSIFICATION_TYPE":"U","LAUNCH_DATE":"2022-01-19","ELEMENT_SET_NO":"999","MEAN_ANOMALY":"298.3472","INCLINATION":"53.2165","SITE":"AFETR","RCS_SIZE":"LARGE","REF_FRAME":"TEME","TLE_LINE1":"1 51109U 22005F   22211.75440237 -.00000164  00000-0  78248-5 0  9991","ECCENTRICITY":"0.00017810","DECAY_DATE":null,"NORAD_CAT_ID":"51109","SEMIMAJOR_AXIS":"6917.866","OBJECT_ID":"2022-005F","EPOCH":"2022-07-30T18:06:20.364768","BSTAR":"0.00000782480000"},{"TLE_LINE2":"2 51110  53.2187  84.8171 0001830  58.3550 301.7620 15.08840602 29940","EPHEMERIS_TYPE":"0","OBJECT_NAME":"STARLINK-3344","OBJECT_TYPE":"PAYLOAD","CENTER_NAME":"EARTH","COUNTRY_CODE":"US","MEAN_MOTION_DDOT":"0.0000000000000","CLASSIFICATION_TYPE":"U","LAUNCH_DATE":"2022-01-19","ELEMENT_SET_NO":"999","RA_OF_ASC_NODE":"84.8171","APOAPSIS":"541.010","FILE":"3525638","GP_ID":"209229016","REV_AT_EPOCH":"2994","MEAN_MOTION":"15.08840602","MEAN_MOTION_DOT":"-0.00000176","PERIOD":"95.438","MEAN_ELEMENT_THEORY":"SGP4","ARG_OF_PERICENTER":"58.3550","PERIAPSIS":"538.478","TIME_SYSTEM":"UTC","REF_FRAME":"TEME","RCS_SIZE":"LARGE","SITE":"AFETR","MEAN_ANOMALY":"301.7620","INCLINATION":"53.2187","SEMIMAJOR_AXIS":"6917.879","NORAD_CAT_ID":"51110","BSTAR":"0.00000704290000","EPOCH":"2022-07-30T22:08:44.538144","OBJECT_ID":"2022-005G","TLE_LINE1":"1 51110U 22005G   22211.92273771 -.00000176  00000-0  70429-5 0  9995","ECCENTRICITY":"0.00018300","DECAY_DATE":null},{"APOAPSIS":"540.983","RA_OF_ASC_NODE":"85.5122","CLASSIFICATION_TYPE":"U","LAUNCH_DATE":"2022-01-19","ELEMENT_SET_NO":"999","PERIAPSIS":"538.536","ARG_OF_PERICENTER":"65.7816","TIME_SYSTEM":"UTC","GP_ID":"209227764","FILE":"3525638","MEAN_MOTION":"15.08835401","REV_AT_EPOCH":"2991","PERIOD":"95.438","MEAN_MOTION_DOT":"-0.00001320","MEAN_ELEMENT_THEORY":"SGP4","OBJECT_NAME":"STARLINK-3173","EPHEMERIS_TYPE":"0","OBJECT_TYPE":"PAYLOAD","TLE_LINE2":"2 51111  53.2178  85.5122 0001768  65.7816 294.3361 15.08835401 29919","COUNTRY_CODE":"US","MEAN_MOTION_DDOT":"0.0000000000000","CENTER_NAME":"EARTH","TLE_LINE1":"1 51111U 22005H   22211.76449715 -.00001320  00000-0 -64847-4 0  9990","DECAY_DATE":null,"ECCENTRICITY":"0.00017680","NORAD_CAT_ID":"51111","SEMIMAJOR_AXIS":"6917.894","OBJECT_ID":"2022-005H","EPOCH":"2022-07-30T18:20:52.553760","BSTAR":"-0.00006484700000","REF_FRAME":"TEME","MEAN_ANOMALY":"294.3361","INCLINATION":"53.2178","SITE":"AFETR","RCS_SIZE":"LARGE"},{"REF_FRAME":"TEME","MEAN_ANOMALY":"300.9736","INCLINATION":"53.2198","RCS_SIZE":"LARGE","SITE":"AFETR","TLE_LINE1":"1 51112U 22005J   22211.91904364 -.00000230  00000-0  36626-5 0  9997","DECAY_DATE":null,"ECCENTRICITY":"0.00019990","SEMIMAJOR_AXIS":"6917.868","NORAD_CAT_ID":"51112","BSTAR":"0.00000366260000","EPOCH":"2022-07-30T22:03:25.370496","OBJECT_ID":"2022-005J","EPHEMERIS_TYPE":"0","OBJECT_NAME":"STARLINK-3374","OBJECT_TYPE":"PAYLOAD","TLE_LINE2":"2 51112  53.2198  84.8226 0001999  59.1452 300.9736 15.08843917 29942","MEAN_MOTION_DDOT":"0.0000000000000","COUNTRY_CODE":"US","CENTER_NAME":"EARTH","RA_OF_ASC_NODE":"84.8226","APOAPSIS":"541.116","CLASSIFICATION_TYPE":"U","LAUNCH_DATE":"2022-01-19","ELEMENT_SET_NO":"999","ARG_OF_PERICENTER":"59.1452","PERIAPSIS":"538.351","TIME_SYSTEM":"UTC","GP_ID":"209228014","MEAN_MOTION":"15.08843917","FILE":"3525638","REV_AT_EPOCH":"2994","MEAN_MOTION_DOT":"-0.00000230","PERIOD":"95.437","MEAN_ELEMENT_THEORY":"SGP4"},{"TLE_LINE1":"1 51113U 22005K   22211.90801298 -.00002930  00000-0 -16599-3 0  9994","DECAY_DATE":null,"ECCENTRICITY":"0.00022230","NORAD_CAT_ID":"51113","SEMIMAJOR_AXIS":"6917.864","OBJECT_ID":"2022-005K","EPOCH":"2022-07-30T21:47:32.321472","BSTAR":"-0.00016599000000","REF_FRAME":"TEME","MEAN_ANOMALY":"291.8811","INCLINATION":"53.2172","SITE":"AFETR","RCS_SIZE":"LARGE","APOAPSIS":"541.267","RA_OF_ASC_NODE":"84.8645","LAUNCH_DATE":"2022-01-19","CLASSIFICATION_TYPE":"U","ELEMENT_SET_NO":"999","PERIAPSIS":"538.191","ARG_OF_PERICENTER":"68.2418","TIME_SYSTEM":"UTC","REV_AT_EPOCH":"2993","GP_ID":"209229266","FILE":"3525638","MEAN_MOTION":"15.08845256","MEAN_MOTION_DOT":"-0.00002930","PERIOD":"95.437","MEAN_ELEMENT_THEORY":"SGP4","OBJECT_NAME":"STARLINK-3372","EPHEMERIS_TYPE":"0","OBJECT_TYPE":"PAYLOAD","TLE_LINE2":"2 51113  53.2172  84.8645 0002223  68.2418 291.8811 15.08845256 29933","MEAN_MOTION_DDOT":"0.0000000000000","COUNTRY_CODE":"US","CENTER_NAME":"EARTH"},{"GP_ID":"209229517","FILE":"3525638","MEAN_MOTION":"15.08842470","REV_AT_EPOCH":"2994","MEAN_ELEMENT_THEORY":"SGP4","PERIOD":"95.437","MEAN_MOTION_DOT":"0.00000644","ARG_OF_PERICENTER":"63.6336","PERIAPSIS":"538.533","TIME_SYSTEM":"UTC","LAUNCH_DATE":"2022-01-19","CLASSIFICATION_TYPE":"U","ELEMENT_SET_NO":"999","RA_OF_ASC_NODE":"84.8002","APOAPSIS":"540.943","CENTER_NAME":"EARTH","COUNTRY_CODE":"US","MEAN_MOTION_DDOT":"0.0000000000000","TLE_LINE2":"2 51114  53.2197  84.8002 0001742  63.6336 296.4835 15.08842470 29944","EPHEMERIS_TYPE":"0","OBJECT_NAME":"STARLINK-3375","OBJECT_TYPE":"PAYLOAD","SEMIMAJOR_AXIS":"6917.873","NORAD_CAT_ID":"51114","EPOCH":"2022-07-30T22:14:01.951872","BSTAR":"0.00005856500000","OBJECT_ID":"2022-005L","TLE_LINE1":"1 51114U 22005L   22211.92641148  .00000644  00000-0  58565-4 0  9991","DECAY_DATE":null,"ECCENTRICITY":"0.00017420","SITE":"AFETR","RCS_SIZE":"LARGE","MEAN_ANOMALY":"296.4835","INCLINATION":"53.2197","REF_FRAME":"TEME"}];
